{
  "norad_id": 40298,
  "name": "ASNARO",
  "history": [
    {
      "epoch": "2026-04-11T20:20:20.244192Z",
      "apogee_km": 510.34714919875023,
      "perigee_km": 504.63070255508865,
      "latitude_deg": -8.211435225271056e-05,
      "longitude_deg": 34.593489887330726,
      "height_km": 509.097794019833,
      "semi_major_axis_km": 6885.62592587692,
      "eccentricity": 0.0004151,
      "inclination_deg": 97.3471,
      "raan_deg": 179.7389,
      "arg_perigee_deg": 58.9099,
      "mean_anomaly_deg": 301.2542,
      "mean_motion_rev_day": 15.19454236
    },
    {
      "epoch": "2026-04-13T05:31:47.278848Z",
      "apogee_km": 510.1458935988394,
      "perigee_km": 504.7321782963354,
      "latitude_deg": 6.345583207752184e-05,
      "longitude_deg": -103.28587327485603,
      "height_km": 508.9539212170596,
      "semi_major_axis_km": 6885.576035947587,
      "eccentricity": 0.00039312,
      "inclination_deg": 97.3467,
      "raan_deg": 181.0853,
      "arg_perigee_deg": 54.5332,
      "mean_anomaly_deg": 305.627,
      "mean_motion_rev_day": 15.1947075
    },
    {
      "epoch": "2026-04-14T19:27:42.676704Z",
      "apogee_km": 510.0957243432804,
      "perigee_km": 504.7098551197514,
      "latitude_deg": -3.614332081446131e-05,
      "longitude_deg": 47.71350263051168,
      "height_km": 508.79113044797083,
      "semi_major_axis_km": 6885.539789731515,
      "eccentricity": 0.0003911,
      "inclination_deg": 97.3474,
      "raan_deg": 182.6233,
      "arg_perigee_deg": 50.9252,
      "mean_anomaly_deg": 309.233,
      "mean_motion_rev_day": 15.19482748
    },
    {
      "epoch": "2026-04-15T20:44:58.924896Z",
      "apogee_km": 510.0152449401148,
      "perigee_km": 504.739563803485,
      "latitude_deg": 3.299724598809725e-05,
      "longitude_deg": 28.382560018540712,
      "height_km": 508.78893658467337,
      "semi_major_axis_km": 6885.514404371799,
      "eccentricity": 0.0003831,
      "inclination_deg": 97.3474,
      "raan_deg": 183.6486,
      "arg_perigee_deg": 50.5975,
      "mean_anomaly_deg": 309.5599,
      "mean_motion_rev_day": 15.19491151
    },
    {
      "epoch": "2026-04-16T20:27:24.984864Z",
      "apogee_km": 509.9805427525089,
      "perigee_km": 504.7324196211475,
      "latitude_deg": -3.559077253060687e-05,
      "longitude_deg": 32.7618657917888,
      "height_km": 508.6630868170325,
      "semi_major_axis_km": 6885.493481186828,
      "eccentricity": 0.0003811,
      "inclination_deg": 97.3473,
      "raan_deg": 184.6101,
      "arg_perigee_deg": 47.297,
      "mean_anomaly_deg": 312.8585,
      "mean_motion_rev_day": 15.19498077
    },
    {
      "epoch": "2026-04-17T21:44:40.389792Z",
      "apogee_km": 509.8920224367548,
      "perigee_km": 504.79483898350827,
      "latitude_deg": -3.1861380747499174e-05,
      "longitude_deg": 13.434654098949713,
      "height_km": 508.59252078838205,
      "semi_major_axis_km": 6885.480430710131,
      "eccentricity": 0.00037014,
      "inclination_deg": 97.347,
      "raan_deg": 185.6356,
      "arg_perigee_deg": 43.8612,
      "mean_anomaly_deg": 316.2916,
      "mean_motion_rev_day": 15.19502397
    },
    {
      "epoch": "2026-04-18T16:42:36.325728Z",
      "apogee_km": 509.7757246185356,
      "perigee_km": 504.80719944033535,
      "latitude_deg": 7.166746960788728e-05,
      "longitude_deg": 88.94228756788786,
      "height_km": 508.506804365172,
      "semi_major_axis_km": 6885.428462029436,
      "eccentricity": 0.0003608,
      "inclination_deg": 97.3467,
      "raan_deg": 186.4052,
      "arg_perigee_deg": 41.1125,
      "mean_anomaly_deg": 319.0382,
      "mean_motion_rev_day": 15.195196
    },
    {
      "epoch": "2026-04-19T19:34:39.813312Z",
      "apogee_km": 509.651156127582,
      "perigee_km": 504.8410274996404,
      "latitude_deg": -9.830934475736457e-07,
      "longitude_deg": 45.91344967549861,
      "height_km": 508.4532054815011,
      "semi_major_axis_km": 6885.383091813611,
      "eccentricity": 0.0003493,
      "inclination_deg": 97.3467,
      "raan_deg": 187.4943,
      "arg_perigee_deg": 38.5735,
      "mean_anomaly_deg": 321.5749,
      "mean_motion_rev_day": 15.19534619
    },
    {
      "epoch": "2026-04-20T14:32:34.455840Z",
      "apogee_km": 509.55676489816415,
      "perigee_km": 504.84333856603007,
      "latitude_deg": -6.388814643845593e-05,
      "longitude_deg": 121.42630676550101,
      "height_km": 508.42450916848844,
      "semi_major_axis_km": 6885.337051732097,
      "eccentricity": 0.00034228,
      "inclination_deg": 97.3468,
      "raan_deg": 188.2637,
      "arg_perigee_deg": 37.7617,
      "mean_anomaly_deg": 322.3857,
      "mean_motion_rev_day": 15.1954986
    },
    {
      "epoch": "2026-04-21T20:34:15.256992Z",
      "apogee_km": 509.4886164587024,
      "perigee_km": 504.8231420037355,
      "latitude_deg": -4.857646137199285e-05,
      "longitude_deg": 30.990590732792217,
      "height_km": 508.3301975363788,
      "semi_major_axis_km": 6885.292879231219,
      "eccentricity": 0.0003388,
      "inclination_deg": 97.346,
      "raan_deg": 189.4812,
      "arg_perigee_deg": 34.8836,
      "mean_anomaly_deg": 325.262,
      "mean_motion_rev_day": 15.19564483
    },
    {
      "epoch": "2026-04-22T20:16:37.092000Z",
      "apogee_km": 509.4130759517975,
      "perigee_km": 504.8343775685016,
      "latitude_deg": 5.9988790461860256e-05,
      "longitude_deg": 35.3877216804648,
      "height_km": 508.2522263787387,
      "semi_major_axis_km": 6885.260726760149,
      "eccentricity": 0.0003325,
      "inclination_deg": 97.3456,
      "raan_deg": 190.4429,
      "arg_perigee_deg": 31.125,
      "mean_anomaly_deg": 329.0182,
      "mean_motion_rev_day": 15.19575127
    },
    {
      "epoch": "2026-04-23T13:39:40.627008Z",
      "apogee_km": 509.3069942021948,
      "perigee_km": 504.8822689464796,
      "latitude_deg": 7.42147309834832e-06,
      "longitude_deg": 134.61474937204224,
      "height_km": 508.23180700504537,
      "semi_major_axis_km": 6885.2316315743365,
      "eccentricity": 0.00032132,
      "inclination_deg": 97.3457,
      "raan_deg": 191.1486,
      "arg_perigee_deg": 28.1062,
      "mean_anomaly_deg": 332.0346,
      "mean_motion_rev_day": 15.19584759
    },
    {
      "epoch": "2026-04-24T19:41:18.663360Z",
      "apogee_km": 509.13745816285973,
      "perigee_km": 504.9650340857079,
      "latitude_deg": 8.909796769160773e-06,
      "longitude_deg": 44.19088826363157,
      "height_km": 508.23507949579306,
      "semi_major_axis_km": 6885.188246124284,
      "eccentricity": 0.000303,
      "inclination_deg": 97.3453,
      "raan_deg": 192.3664,
      "arg_perigee_deg": 24.0356,
      "mean_anomaly_deg": 336.102,
      "mean_motion_rev_day": 15.19599122
    },
    {
      "epoch": "2026-04-25T19:23:38.023872Z",
      "apogee_km": 509.00950410630503,
      "perigee_km": 504.9665586878691,
      "latitude_deg": 9.187679342096092e-05,
      "longitude_deg": 48.59676334022631,
      "height_km": 508.19726027121544,
      "semi_major_axis_km": 6885.125031397087,
      "eccentricity": 0.0002936,
      "inclination_deg": 97.3459,
      "raan_deg": 193.3265,
      "arg_perigee_deg": 21.5484,
      "mean_anomaly_deg": 338.5875,
      "mean_motion_rev_day": 15.1962005
    },
    {
      "epoch": "2026-04-26T22:15:34.759296Z",
      "apogee_km": 508.85586262905053,
      "perigee_km": 504.99251709419514,
      "latitude_deg": -3.05374854078108e-05,
      "longitude_deg": 5.59664438769989,
      "height_km": 508.20485080639605,
      "semi_major_axis_km": 6885.061189861623,
      "eccentricity": 0.00028056,
      "inclination_deg": 97.3465,
      "raan_deg": 194.4161,
      "arg_perigee_deg": 20.5331,
      "mean_anomaly_deg": 339.6016,
      "mean_motion_rev_day": 15.19641186
    },
    {
      "epoch": "2026-04-27T20:23:02.758272Z",
      "apogee_km": 508.76447228486086,
      "perigee_km": 504.9722113425896,
      "latitude_deg": 5.292118815043522e-05,
      "longitude_deg": 33.71915339001305,
      "height_km": 508.1389932802846,
      "semi_major_axis_km": 6885.005341813725,
      "eccentricity": 0.0002754,
      "inclination_deg": 97.3463,
      "raan_deg": 195.3139,
      "arg_perigee_deg": 16.3648,
      "mean_anomaly_deg": 343.7676,
      "mean_motion_rev_day": 15.19659676
    },
    {
      "epoch": "2026-04-28T18:30:29.925216Z",
      "apogee_km": 508.5527132798152,
      "perigee_km": 505.0813194647608,
      "latitude_deg": 3.602765059197617e-05,
      "longitude_deg": 61.84485148266178,
      "height_km": 508.2109003097301,
      "semi_major_axis_km": 6884.954016372288,
      "eccentricity": 0.0002521,
      "inclination_deg": 97.3465,
      "raan_deg": 196.2114,
      "arg_perigee_deg": 12.1981,
      "mean_anomaly_deg": 347.9315,
      "mean_motion_rev_day": 15.19676669
    },
    {
      "epoch": "2026-04-29T19:47:53.507040Z",
      "apogee_km": 509.57856718926905,
      "perigee_km": 505.8904943973748,
      "latitude_deg": -2.8877571403049234e-05,
      "longitude_deg": 42.48348395340226,
      "height_km": 509.15146074951343,
      "semi_major_axis_km": 6885.871530793322,
      "eccentricity": 0.0002678,
      "inclination_deg": 97.3463,
      "raan_deg": 197.2369,
      "arg_perigee_deg": 335.3096,
      "mean_anomaly_deg": 24.801,
      "mean_motion_rev_day": 15.19372943
    },
    {
      "epoch": "2026-04-30T13:11:05.174016Z",
      "apogee_km": 509.44845117290515,
      "perigee_km": 505.9136853257505,
      "latitude_deg": 3.783370564831409e-05,
      "longitude_deg": 141.67542155853636,
      "height_km": 509.20927933317176,
      "semi_major_axis_km": 6885.818068249328,
      "eccentricity": 0.00025667,
      "inclination_deg": 97.347,
      "raan_deg": 197.9415,
      "arg_perigee_deg": 332.2625,
      "mean_anomaly_deg": 27.8473,
      "mean_motion_rev_day": 15.19390638
    }
  ]
}